37192,GLOBALSTAR M075,2010,114.08,700.0,+,51.99,Active,1,LEO,Kazakhstan,Globalstar,Commercial,Communications,Soyuz,1 37192U 10054E   24279.20047769 -.00000053  00000+0  28605-3 0  9993,2 37192  51.9936 237.9161 0000495  78.4647  24.1579 12.62285474644171,12.62285474,4.95e-05,LEO
37193,GLOBALSTAR M073,2010,114.08,700.0,+,52.0,Active,1,LEO,Kazakhstan,Globalstar,Commercial,Communications,Soyuz,1 37193U 10054F   24279.13489744 -.00000069  00000+0  19452-3 0  9996,2 37193  52.0045 151.7410 0000888  88.5201  75.7078 12.62270531645679,12.62270531,8.88e-05,LEO
37739,GLOBALSTAR M083,2011,114.08,700.0,+,51.98,Active,1,LEO,Kazakhstan,Globalstar,Commercial,Communications,Soyuz,1 37739U 11033A   24279.51440943 -.00000069  00000+0  19553-3 0  9992,2 37739  51.9840  99.6628 0000963  79.9361 310.3791 12.62265888615050,12.62265888,9.63e-05,LEO
37740,GLOBALSTAR M088,2011,114.08,700.0,+,51.98,Active,1,LEO,Kazakhstan,Globalstar,Commercial,Communications,Soyuz,1 37740U 11033B   24279.56329231 -.00000087  00000+0  93283-4 0  9998,2 37740  51.9769   5.2195 0000610  94.1550 279.4940 12.62262532610534,12.62262532,6.1e-05,LEO
37741,GLOBALSTAR M091,2011,114.08,700.0,+,52.0,Active,1,LEO,Kazakhstan,Globalstar,Commercial,Communications,Soyuz,1 37741U 11033C   24279.18620431 -.00000058  00000+0  25416-3 0  9993,2 37741  52.0012 329.4718 0000624  73.1243 324.0847 12.62267967611240,12.62267967,6.24e-05,LEO
37742,GLOBALSTAR M085,2011,114.08,700.0,+,51.99,Active,1,LEO,Kazakhstan,Globalstar,Commercial,Communications,Soyuz,1 37742U 11033D   24279.18172870 -.00000088  00000+0  88989-4 0  9991,2 37742  51.9858 280.7474 0000582  58.6927  19.4687 12.62266745611986,12.62266745,5.82e-05,LEO
37743,GLOBALSTAR M081,2011,114.08,700.0,+,52.0,Active,1,LEO,Kazakhstan,Globalstar,Commercial,Communications,Soyuz,1 37743U 11033E   24278.95637314 -.00000075  00000+0  16330-3 0  9991,2 37743  51.9952 284.0627 0000671  79.3759 294.3869 12.62270415611616,12.62270415,6.71e-05,LEO
37744,GLOBALSTAR M089,2011,114.08,700.0,+,51.99,Active,1,LEO,Kazakhstan,Globalstar,Commercial,Communications,Soyuz,1 37744U 11033F   24278.92175253 -.00000075  00000+0  15878-3 0  9994,2 37744  51.9920 238.4449 0000465 106.1143 288.6218 12.62269906612454,12.62269906,4.65e-05,LEO
